{
  "links" : {
    "next" : "https://api.nasa.gov/neo/rest/v1/neo/browse?page=43&size=20&api_key=jqAGvNAwUIBu4fl9FSOjdm3V4F7hIglRzI6pdX9d",
    "prev" : "https://api.nasa.gov/neo/rest/v1/neo/browse?page=41&size=20&api_key=jqAGvNAwUIBu4fl9FSOjdm3V4F7hIglRzI6pdX9d",
    "self" : "https://api.nasa.gov/neo/rest/v1/neo/browse?page=42&size=20&api_key=jqAGvNAwUIBu4fl9FSOjdm3V4F7hIglRzI6pdX9d"
  },
  "page" : {
    "size" : 20,
    "total_elements" : 20750,
    "total_pages" : 1038,
    "number" : 42
  },
  "near_earth_objects" : [ {
    "links" : {
      "self" : "https://api.nasa.gov/neo/rest/v1/neo/3836070?api_key=jqAGvNAwUIBu4fl9FSOjdm3V4F7hIglRzI6pdX9d"
    },
    "neo_reference_id" : "3836070",
    "name" : "(2018 VU2)",
    "designation" : "2018 VU2",
    "nasa_jpl_url" : "http://ssd.jpl.nasa.gov/sbdb.cgi?sstr=3836070",
    "absolute_magnitude_h" : 19.484,
    "estimated_diameter" : {
      "kilometers" : {
        "estimated_diameter_min" : 0.3370970691,
        "estimated_diameter_max" : 0.7537719616
      },
      "meters" : {
        "estimated_diameter_min" : 337.0970691427,
        "estimated_diameter_max" : 753.771961619
      },
      "miles" : {
        "estimated_diameter_min" : 0.209462343,
        "estimated_diameter_max" : 0.4683720376
      },
      "feet" : {
        "estimated_diameter_min" : 1105.9615483261,
        "estimated_diameter_max" : 2473.005202558
      }
    },
    "is_potentially_hazardous_asteroid" : false,
    "close_approach_data" : [ ],
    "orbital_data" : {
      "orbit_id" : "1",
      "orbit_determination_date" : "2018-11-19 07:39:35",
      "first_observation_date" : "2018-11-06",
      "last_observation_date" : "2018-11-07",
      "data_arc_in_days" : 1,
      "observations_used" : 20,
      "orbit_uncertainty" : "9",
      "minimum_orbit_intersection" : ".387278",
      "jupiter_tisserand_invariant" : "3.365",
      "epoch_osculation" : "2458429.5",
      "eccentricity" : ".4230726542328829",
      "semi_major_axis" : "2.188428769140577",
      "inclination" : "32.85217546977498",
      "ascending_node_longitude" : "359.4533153809516",
      "orbital_period" : "1182.488838025826",
      "perihelion_distance" : "1.262564401180672",
      "perihelion_argument" : "53.82127026527865",
      "aphelion_distance" : "3.114293137100481",
      "perihelion_time" : "2458479.976928621665",
      "mean_anomaly" : "344.6326715995585",
      "mean_motion" : ".30444262002593",
      "equinox" : "J2000",
      "orbit_class" : {
        "orbit_class_type" : "AMO",
        "orbit_class_range" : "1.017 AU < q (perihelion) < 1.3 AU",
        "orbit_class_description" : "Near-Earth asteroid orbits similar to that of 1221 Amor"
      }
    },
    "is_sentry_object" : false
  }, {
    "links" : {
      "self" : "https://api.nasa.gov/neo/rest/v1/neo/3836280?api_key=jqAGvNAwUIBu4fl9FSOjdm3V4F7hIglRzI6pdX9d"
    },
    "neo_reference_id" : "3836280",
    "name" : "(2018 WO)",
    "designation" : "2018 WO",
    "nasa_jpl_url" : "http://ssd.jpl.nasa.gov/sbdb.cgi?sstr=3836280",
    "absolute_magnitude_h" : 24.6,
    "estimated_diameter" : {
      "kilometers" : {
        "estimated_diameter_min" : 0.0319561887,
        "estimated_diameter_max" : 0.0714562102
      },
      "meters" : {
        "estimated_diameter_min" : 31.9561886721,
        "estimated_diameter_max" : 71.4562101727
      },
      "miles" : {
        "estimated_diameter_min" : 0.0198566489,
        "estimated_diameter_max" : 0.0444008168
      },
      "feet" : {
        "estimated_diameter_min" : 104.8431420431,
        "estimated_diameter_max" : 234.436392583
      }
    },
    "is_potentially_hazardous_asteroid" : false,
    "close_approach_data" : [ {
      "close_approach_date" : "2018-11-04",
      "epoch_date_close_approach" : 1541314800000,
      "relative_velocity" : {
        "kilometers_per_second" : "6.9159706462",
        "kilometers_per_hour" : "24897.4943263885",
        "miles_per_hour" : "15470.3347385273"
      },
      "miss_distance" : {
        "astronomical" : "0.0853901551",
        "lunar" : "33.2167701721",
        "kilometers" : "12774186",
        "miles" : "7937511"
      },
      "orbiting_body" : "Earth"
    } ],
    "orbital_data" : {
      "orbit_id" : "5",
      "orbit_determination_date" : "2019-01-21 07:51:00",
      "first_observation_date" : "2018-11-17",
      "last_observation_date" : "2018-12-09",
      "data_arc_in_days" : 22,
      "observations_used" : 37,
      "orbit_uncertainty" : "7",
      "minimum_orbit_intersection" : ".0813275",
      "jupiter_tisserand_invariant" : "4.116",
      "epoch_osculation" : "2458600.5",
      "eccentricity" : ".3722983769257117",
      "semi_major_axis" : "1.691769717171155",
      "inclination" : "10.46853755878821",
      "ascending_node_longitude" : "232.4916557259571",
      "orbital_period" : "803.7302182897366",
      "perihelion_distance" : "1.061926597336264",
      "perihelion_argument" : "160.14414617",
      "aphelion_distance" : "2.321612837006047",
      "perihelion_time" : "2458417.035627455765",
      "mean_anomaly" : "82.17580055216392",
      "mean_motion" : ".4479114904576396",
      "equinox" : "J2000",
      "orbit_class" : {
        "orbit_class_type" : "AMO",
        "orbit_class_range" : "1.017 AU < q (perihelion) < 1.3 AU",
        "orbit_class_description" : "Near-Earth asteroid orbits similar to that of 1221 Amor"
      }
    },
    "is_sentry_object" : false
  }, {
    "links" : {
      "self" : "https://api.nasa.gov/neo/rest/v1/neo/3836412?api_key=jqAGvNAwUIBu4fl9FSOjdm3V4F7hIglRzI6pdX9d"
    },
    "neo_reference_id" : "3836412",
    "name" : "(2018 WF2)",
    "designation" : "2018 WF2",
    "nasa_jpl_url" : "http://ssd.jpl.nasa.gov/sbdb.cgi?sstr=3836412",
    "absolute_magnitude_h" : 28.4,
    "estimated_diameter" : {
      "kilometers" : {
        "estimated_diameter_min" : 0.0055533491,
        "estimated_diameter_max" : 0.0124176661
      },
      "meters" : {
        "estimated_diameter_min" : 5.5533491158,
        "estimated_diameter_max" : 12.4176661257
      },
      "miles" : {
        "estimated_diameter_min" : 0.0034506901,
        "estimated_diameter_max" : 0.0077159776
      },
      "feet" : {
        "estimated_diameter_min" : 18.2196499131,
        "estimated_diameter_max" : 40.740375732
      }
    },
    "is_potentially_hazardous_asteroid" : false,
    "close_approach_data" : [ {
      "close_approach_date" : "2018-12-01",
      "epoch_date_close_approach" : 1543651200000,
      "relative_velocity" : {
        "kilometers_per_second" : "11.4260332453",
        "kilometers_per_hour" : "41133.7196832042",
        "miles_per_hour" : "25558.8937664887"
      },
      "miss_distance" : {
        "astronomical" : "0.0071035749",
        "lunar" : "2.7632906437",
        "kilometers" : "1062679.75",
        "miles" : "660318.5625"
      },
      "orbiting_body" : "Earth"
    }, {
      "close_approach_date" : "2018-12-01",
      "epoch_date_close_approach" : 1543651200000,
      "relative_velocity" : {
        "kilometers_per_second" : "10.7884747292",
        "kilometers_per_hour" : "38838.509025228",
        "miles_per_hour" : "24132.7391218146"
      },
      "miss_distance" : {
        "astronomical" : "0.0059188533",
        "lunar" : "2.3024339676",
        "kilometers" : "885447.875",
        "miles" : "550191.8125"
      },
      "orbiting_body" : "Moon"
    }, {
      "close_approach_date" : "2020-08-30",
      "epoch_date_close_approach" : 1598770800000,
      "relative_velocity" : {
        "kilometers_per_second" : "2.8267082017",
        "kilometers_per_hour" : "10176.149526072",
        "miles_per_hour" : "6323.0635763529"
      },
      "miss_distance" : {
        "astronomical" : "1.7267317602",
        "lunar" : "671.6986694336",
        "kilometers" : "258315392",
        "miles" : "160509744"
      },
      "orbiting_body" : "Juptr"
    } ],
    "orbital_data" : {
      "orbit_id" : "1",
      "orbit_determination_date" : "2018-11-30 20:42:31",
      "first_observation_date" : "2018-11-29",
      "last_observation_date" : "2018-11-30",
      "data_arc_in_days" : 1,
      "observations_used" : 15,
      "orbit_uncertainty" : "7",
      "minimum_orbit_intersection" : ".00457713",
      "jupiter_tisserand_invariant" : "3.458",
      "epoch_osculation" : "2458600.5",
      "eccentricity" : ".5862444781038605",
      "semi_major_axis" : "2.153656244676004",
      "inclination" : "1.484770357810367",
      "ascending_node_longitude" : "59.76025496357786",
      "orbital_period" : "1154.417771718808",
      "perihelion_distance" : ".8910871635008001",
      "perihelion_argument" : "52.4710990746506",
      "aphelion_distance" : "3.416225325851208",
      "perihelion_time" : "2458485.273406579269",
      "mean_anomaly" : "35.93289591315056",
      "mean_motion" : ".3118455110613876",
      "equinox" : "J2000",
      "orbit_class" : {
        "orbit_class_type" : "APO",
        "orbit_class_range" : "a (semi-major axis) > 1.0 AU; q (perihelion) < 1.017 AU",
        "orbit_class_description" : "Near-Earth asteroid orbits which cross the Earth’s orbit similar to that of 1862 Apollo"
      }
    },
    "is_sentry_object" : false
  } ]
}